{"type": "FeatureCollection", "features": [{"type": "Feature", "properties": {"norad_id": 28890, "name": "BEIJING 1", "group": "dmc", "lat": -73.61735640449297, "lon": 155.96325532169146, "alt_km": 700.7596892380752, "timestamp": "2025-12-24T18:55:55.723880+00:00", "meta": {"OBJECT_NAME": "BEIJING 1", "OBJECT_ID": "2005-043A", "EPOCH": "2025-12-24T07:47:30.466752", "MEAN_MOTION": 14.63375374, "ECCENTRICITY": 0.00158125, "INCLINATION": 98.2665, "RA_OF_ASC_NODE": 125.8597, "ARG_OF_PERICENTER": 107.3104, "MEAN_ANOMALY": 252.9829, "EPHEMERIS_TYPE": 0, "CLASSIFICATION_TYPE": "U", "NORAD_CAT_ID": 28890, "ELEMENT_SET_NO": 999, "REV_AT_EPOCH": 7507, "BSTAR": 3.9729131e-05, "MEAN_MOTION_DOT": 1.57e-06, "MEAN_MOTION_DDOT": 0}, "tle": {"line1": "1 28890U 05043A   25358.32465818  .00000157  00000+0  39729-4 0  9995", "line2": "2 28890  98.2665 125.8597 0015812 107.3104 252.9829 14.63375374 75074"}}, "geometry": {"type": "Point", "coordinates": [155.96325532169146, -73.61735640449297]}}, {"type": "Feature", "properties": {"norad_id": 33320, "name": "HUANJING 1A (HJ-1A)", "group": "dmc", "lat": 77.96470845320171, "lon": -154.30485863112537, "alt_km": 614.3093168886116, "timestamp": "2025-12-24T18:55:55.723913+00:00", "meta": {"OBJECT_NAME": "HUANJING 1A (HJ-1A)", "OBJECT_ID": "2008-041A", "EPOCH": "2025-12-24T07:09:18.126144", "MEAN_MOTION": 14.83428691, "ECCENTRICITY": 0.00193171, "INCLINATION": 97.6547, "RA_OF_ASC_NODE": 346.1142, "ARG_OF_PERICENTER": 357.6206, "MEAN_ANOMALY": 2.4913, "EPHEMERIS_TYPE": 0, "CLASSIFICATION_TYPE": "U", "NORAD_CAT_ID": 33320, "ELEMENT_SET_NO": 999, "REV_AT_EPOCH": 93247, "BSTAR": 0.00018243951, "MEAN_MOTION_DOT": 1.451e-05, "MEAN_MOTION_DDOT": 0}, "tle": {"line1": "1 33320U 08041A   25358.29812646  .00001451  00000+0  18244-3 0  9997", "line2": "2 33320  97.6547 346.1142 0019317 357.6206   2.4913 14.83428691932472"}}, "geometry": {"type": "Point", "coordinates": [-154.30485863112537, 77.96470845320171]}}, {"type": "Feature", "properties": {"norad_id": 33321, "name": "HUANJING 1B (HJ-1B)", "group": "dmc", "lat": -64.19196084974347, "lon": 6.36544115272781, "alt_km": 633.273459109073, "timestamp": "2025-12-24T18:55:55.723929+00:00", "meta": {"OBJECT_NAME": "HUANJING 1B (HJ-1B)", "OBJECT_ID": "2008-041B", "EPOCH": "2025-12-24T06:16:09.920352", "MEAN_MOTION": 14.82850093, "ECCENTRICITY": 0.00377933, "INCLINATION": 97.6403, "RA_OF_ASC_NODE": 349.7454, "ARG_OF_PERICENTER": 39.1893, "MEAN_ANOMALY": 321.2047, "EPHEMERIS_TYPE": 0, "CLASSIFICATION_TYPE": "U", "NORAD_CAT_ID": 33321, "ELEMENT_SET_NO": 999, "REV_AT_EPOCH": 93248, "BSTAR": 0.00019406429, "MEAN_MOTION_DOT": 1.539e-05, "MEAN_MOTION_DDOT": 0}, "tle": {"line1": "1 33321U 08041B   25358.26122593  .00001539  00000+0  19406-3 0  9998", "line2": "2 33321  97.6403 349.7454 0037793  39.1893 321.2047 14.82850093932486"}}, "geometry": {"type": "Point", "coordinates": [6.36544115272781, -64.19196084974347]}}, {"type": "Feature", "properties": {"norad_id": 33446, "name": "YAOGAN-4", "group": "dmc", "lat": -20.94583229611098, "lon": 105.71619008733099, "alt_km": 624.4273625924379, "timestamp": "2025-12-24T18:55:55.723942+00:00", "meta": {"OBJECT_NAME": "YAOGAN-4", "OBJECT_ID": "2008-061A", "EPOCH": "2025-12-24T06:41:21.910848", "MEAN_MOTION": 14.82714813, "ECCENTRICITY": 0.00129966, "INCLINATION": 97.9197, "RA_OF_ASC_NODE": 288.2655, "ARG_OF_PERICENTER": 282.4259, "MEAN_ANOMALY": 77.55, "EPHEMERIS_TYPE": 0, "CLASSIFICATION_TYPE": "U", "NORAD_CAT_ID": 33446, "ELEMENT_SET_NO": 999, "REV_AT_EPOCH": 91974, "BSTAR": 0.0001734889, "MEAN_MOTION_DOT": 1.348e-05, "MEAN_MOTION_DDOT": 0}, "tle": {"line1": "1 33446U 08061A   25358.27872582  .00001348  00000+0  17349-3 0  9991", "line2": "2 33446  97.9197 288.2655 0012996 282.4259  77.5500 14.82714813919742"}}, "geometry": {"type": "Point", "coordinates": [105.71619008733099, -20.94583229611098]}}, {"type": "Feature", "properties": {"norad_id": 35681, "name": "DEIMOS-1", "group": "dmc", "lat": -4.485785892180959, "lon": 159.44082949125868, "alt_km": 648.052958524454, "timestamp": "2025-12-24T18:55:55.723953+00:00", "meta": {"OBJECT_NAME": "DEIMOS-1", "OBJECT_ID": "2009-041A", "EPOCH": "2025-12-24T07:33:20.179296", "MEAN_MOTION": 14.74969193, "ECCENTRICITY": 0.00025047, "INCLINATION": 97.7155, "RA_OF_ASC_NODE": 158.3796, "ARG_OF_PERICENTER": 60.8153, "MEAN_ANOMALY": 299.3307, "EPHEMERIS_TYPE": 0, "CLASSIFICATION_TYPE": "U", "NORAD_CAT_ID": 35681, "ELEMENT_SET_NO": 999, "REV_AT_EPOCH": 88110, "BSTAR": 0.00010490674, "MEAN_MOTION_DOT": 6.58e-06, "MEAN_MOTION_DDOT": 0}, "tle": {"line1": "1 35681U 09041A   25358.31481689  .00000658  00000+0  10491-3 0  9996", "line2": "2 35681  97.7155 158.3796 0002504  60.8153 299.3307 14.74969193881106"}}, "geometry": {"type": "Point", "coordinates": [159.44082949125868, -4.485785892180959]}}, {"type": "Feature", "properties": {"norad_id": 35683, "name": "UK-DMC 2", "group": "dmc", "lat": 39.42412476630307, "lon": 126.83316445802028, "alt_km": 639.4184221524492, "timestamp": "2025-12-24T18:55:55.723965+00:00", "meta": {"OBJECT_NAME": "UK-DMC 2", "OBJECT_ID": "2009-041C", "EPOCH": "2025-12-24T07:21:37.101888", "MEAN_MOTION": 14.75644939, "ECCENTRICITY": 0.00015596, "INCLINATION": 97.8573, "RA_OF_ASC_NODE": 132.8835, "ARG_OF_PERICENTER": 92.6805, "MEAN_ANOMALY": 267.4583, "EPHEMERIS_TYPE": 0, "CLASSIFICATION_TYPE": "U", "NORAD_CAT_ID": 35683, "ELEMENT_SET_NO": 999, "REV_AT_EPOCH": 88077, "BSTAR": 0.00013693875, "MEAN_MOTION_DOT": 8.86e-06, "MEAN_MOTION_DDOT": 0}, "tle": {"line1": "1 35683U 09041C   25358.30667942  .00000886  00000+0  13694-3 0  9996", "line2": "2 35683  97.8573 132.8835 0001559  92.6805 267.4583 14.75644939880773"}}, "geometry": {"type": "Point", "coordinates": [126.83316445802028, 39.42412476630307]}}, {"type": "Feature", "properties": {"norad_id": 40715, "name": "DMC3-FM1", "group": "dmc", "lat": 25.751579103458763, "lon": 49.2681810311576, "alt_km": 612.6793759632174, "timestamp": "2025-12-24T18:55:55.723976+00:00", "meta": {"OBJECT_NAME": "DMC3-FM1", "OBJECT_ID": "2015-032A", "EPOCH": "2025-12-24T06:55:28.567776", "MEAN_MOTION": 14.85458614, "ECCENTRICITY": 0.00040419, "INCLINATION": 97.6683, "RA_OF_ASC_NODE": 225.0599, "ARG_OF_PERICENTER": 273.9267, "MEAN_ANOMALY": 86.1486, "EPHEMERIS_TYPE": 0, "CLASSIFICATION_TYPE": "U", "NORAD_CAT_ID": 40715, "ELEMENT_SET_NO": 999, "REV_AT_EPOCH": 56394, "BSTAR": 5.7021766e-05, "MEAN_MOTION_DOT": 4.4e-06, "MEAN_MOTION_DDOT": 0}, "tle": {"line1": "1 40715U 15032A   25358.28852509  .00000440  00000+0  57022-4 0  9997", "line2": "2 40715  97.6683 225.0599 0004041 273.9267  86.1486 14.85458614563941"}}, "geometry": {"type": "Point", "coordinates": [49.2681810311576, 25.751579103458763]}}, {"type": "Feature", "properties": {"norad_id": 40716, "name": "DMC3-FM2", "group": "dmc", "lat": 33.38632927128609, "lon": -138.1041129233951, "alt_km": 611.5046595039339, "timestamp": "2025-12-24T18:55:55.723987+00:00", "meta": {"OBJECT_NAME": "DMC3-FM2", "OBJECT_ID": "2015-032B", "EPOCH": "2025-12-24T05:50:51.086112", "MEAN_MOTION": 14.85459118, "ECCENTRICITY": 0.00046834, "INCLINATION": 97.6739, "RA_OF_ASC_NODE": 226.4684, "ARG_OF_PERICENTER": 280.378, "MEAN_ANOMALY": 79.6907, "EPHEMERIS_TYPE": 0, "CLASSIFICATION_TYPE": "U", "NORAD_CAT_ID": 40716, "ELEMENT_SET_NO": 999, "REV_AT_EPOCH": 56393, "BSTAR": 6.8573428e-05, "MEAN_MOTION_DOT": 5.4e-06, "MEAN_MOTION_DDOT": 0}, "tle": {"line1": "1 40716U 15032B   25358.24364683  .00000540  00000+0  68573-4 0  9999", "line2": "2 40716  97.6739 226.4684 0004683 280.3780  79.6907 14.85459118563932"}}, "geometry": {"type": "Point", "coordinates": [-138.1041129233951, 33.38632927128609]}}, {"type": "Feature", "properties": {"norad_id": 40717, "name": "DMC3-FM3", "group": "dmc", "lat": -79.18739738013282, "lon": -86.41585487579485, "alt_km": 616.7610121345542, "timestamp": "2025-12-24T18:55:55.723998+00:00", "meta": {"OBJECT_NAME": "DMC3-FM3", "OBJECT_ID": "2015-032C", "EPOCH": "2025-12-24T06:22:08.192640", "MEAN_MOTION": 14.85445838, "ECCENTRICITY": 0.00039711, "INCLINATION": 97.6793, "RA_OF_ASC_NODE": 228.1303, "ARG_OF_PERICENTER": 280.7987, "MEAN_ANOMALY": 79.2781, "EPHEMERIS_TYPE": 0, "CLASSIFICATION_TYPE": "U", "NORAD_CAT_ID": 40717, "ELEMENT_SET_NO": 999, "REV_AT_EPOCH": 56394, "BSTAR": 0.00011096377, "MEAN_MOTION_DOT": 9.05e-06, "MEAN_MOTION_DDOT": 0}, "tle": {"line1": "1 40717U 15032C   25358.26537260  .00000905  00000+0  11096-3 0  9997", "line2": "2 40717  97.6793 228.1303 0003971 280.7987  79.2781 14.85445838563943"}}, "geometry": {"type": "Point", "coordinates": [-86.41585487579485, -79.18739738013282]}}]}